[{"OBJECT_NAME":"FENGYUN 1C DEB","OBJECT_ID":"1999-025EWX","EPOCH":"2026-03-25T20:28:14.033280","MEAN_MOTION":13.9000553,"ECCENTRICITY":0.01291771,"INCLINATION":99.0425,"RA_OF_ASC_NODE":119.3425,"ARG_OF_PERICENTER":31.4384,"MEAN_ANOMALY":329.4414,"EPHEMERIS_TYPE":0,"CLASSIFICATION_TYPE":"U","NORAD_CAT_ID":40691,"ELEMENT_SET_NO":999,"REV_AT_EPOCH":56868,"BSTAR":0.00014538147,"MEAN_MOTION_DOT":1.49e-6,"MEAN_MOTION_DDOT":0},{"OBJECT_NAME":"FENGYUN 1C DEB","OBJECT_ID":"1999-025EXB","EPOCH":"2026-03-24T02:39:09.747072","MEAN_MOTION":14.51503334,"ECCENTRICITY":0.02805812,"INCLINATION":99.4315,"RA_OF_ASC_NODE":218.6933,"ARG_OF_PERICENTER":32.2535,"MEAN_ANOMALY":329.5475,"EPHEMERIS_TYPE":0,"CLASSIFICATION_TYPE":"U","NORAD_CAT_ID":40695,"ELEMENT_SET_NO":999,"REV_AT_EPOCH":33336,"BSTAR":0.00018758788,"MEAN_MOTION_DOT":1.179e-5,"MEAN_MOTION_DDOT":0},{"OBJECT_NAME":"FENGYUN 1C DEB","OBJECT_ID":"1999-025EXH","EPOCH":"2026-04-05T14:15:31.917024","MEAN_MOTION":14.80565153,"ECCENTRICITY":0.0060299,"INCLINATION":98.968,"RA_OF_ASC_NODE":32.1481,"ARG_OF_PERICENTER":295.6575,"MEAN_ANOMALY":63.8413,"EPHEMERIS_TYPE":0,"CLASSIFICATION_TYPE":"U","NORAD_CAT_ID":41003,"ELEMENT_SET_NO":999,"REV_AT_EPOCH":54100,"BSTAR":0.0049606,"MEAN_MOTION_DOT":0.00039375,"MEAN_MOTION_DDOT":0},{"OBJECT_NAME":"FENGYUN 1C DEB","OBJECT_ID":"1999-025EXK","EPOCH":"2026-03-30T07:47:19.307328","MEAN_MOTION":13.51143316,"ECCENTRICITY":0.05722948,"INCLINATION":98.9483,"RA_OF_ASC_NODE":122.5123,"ARG_OF_PERICENTER":178.177,"MEAN_ANOMALY":182.1644,"EPHEMERIS_TYPE":0,"CLASSIFICATION_TYPE":"U","NORAD_CAT_ID":41005,"ELEMENT_SET_NO":999,"REV_AT_EPOCH":53833,"BSTAR":0.0012678294,"MEAN_MOTION_DOT":2.279e-5,"MEAN_MOTION_DDOT":0},{"OBJECT_NAME":"FENGYUN 1C DEB","OBJECT_ID":"1999-025EXL","EPOCH":"2026-03-28T00:29:45.044736","MEAN_MOTION":13.86078653,"ECCENTRICITY":0.01838968,"INCLINATION":102.367,"RA_OF_ASC_NODE":356.1302,"ARG_OF_PERICENTER":119.2593,"MEAN_ANOMALY":242.7074,"EPHEMERIS_TYPE":0,"CLASSIFICATION_TYPE":"U","NORAD_CAT_ID":41006,"ELEMENT_SET_NO":999,"REV_AT_EPOCH":58947,"BSTAR":0.0021344622,"MEAN_MOTION_DOT":2.741e-5,"MEAN_MOTION_DDOT":0},{"OBJECT_NAME":"FENGYUN 1C DEB","OBJECT_ID":"1999-025EXM","EPOCH":"2026-03-28T07:55:05.431872","MEAN_MOTION":13.8620012,"ECCENTRICITY":0.0173658,"INCLINATION":99.9575,"RA_OF_ASC_NODE":125.8425,"ARG_OF_PERICENTER":127.7159,"MEAN_ANOMALY":233.9879,"EPHEMERIS_TYPE":0,"CLASSIFICATION_TYPE":"U","NORAD_CAT_ID":41007,"ELEMENT_SET_NO":999,"REV_AT_EPOCH":58861,"BSTAR":0.0014094809,"MEAN_MOTION_DOT":1.783e-5,"MEAN_MOTION_DDOT":0},{"OBJECT_NAME":"FENGYUN 1C DEB","OBJECT_ID":"1999-025EXR","EPOCH":"2026-04-04T21:25:16.752864","MEAN_MOTION":14.43868965,"ECCENTRICITY":0.03071381,"INCLINATION":99.1477,"RA_OF_ASC_NODE":153.604,"ARG_OF_PERICENTER":23.4891,"MEAN_ANOMALY":337.9989,"EPHEMERIS_TYPE":0,"CLASSIFICATION_TYPE":"U","NORAD_CAT_ID":41011,"ELEMENT_SET_NO":999,"REV_AT_EPOCH":58789,"BSTAR":0.0007830876,"MEAN_MOTION_DOT":4.697e-5,"MEAN_MOTION_DDOT":0},{"OBJECT_NAME":"FENGYUN 1C DEB","OBJECT_ID":"1999-025EXZ","EPOCH":"2026-04-05T03:17:04.178688","MEAN_MOTION":14.25652924,"ECCENTRICITY":0.00531801,"INCLINATION":98.7189,"RA_OF_ASC_NODE":165.7473,"ARG_OF_PERICENTER":249.8567,"MEAN_ANOMALY":109.6887,"EPHEMERIS_TYPE":0,"CLASSIFICATION_TYPE":"U","NORAD_CAT_ID":41822,"ELEMENT_SET_NO":999,"REV_AT_EPOCH":48988,"BSTAR":0.0017232663,"MEAN_MOTION_DOT":4.103e-5,"MEAN_MOTION_DDOT":0},{"OBJECT_NAME":"FENGYUN 1C DEB","OBJECT_ID":"1999-025EYA","EPOCH":"2026-04-05T17:16:41.988288","MEAN_MOTION":14.24298854,"ECCENTRICITY":0.0052682,"INCLINATION":98.7056,"RA_OF_ASC_NODE":163.0427,"ARG_OF_PERICENTER":256.6175,"MEAN_ANOMALY":102.9128,"EPHEMERIS_TYPE":0,"CLASSIFICATION_TYPE":"U","NORAD_CAT_ID":41823,"ELEMENT_SET_NO":999,"REV_AT_EPOCH":48980,"BSTAR":0.0014146,"MEAN_MOTION_DOT":3.27e-5,"MEAN_MOTION_DDOT":0},{"OBJECT_NAME":"FENGYUN 1C DEB","OBJECT_ID":"1999-025EYB","EPOCH":"2026-04-05T03:07:44.739552","MEAN_MOTION":14.24997657,"ECCENTRICITY":0.00549225,"INCLINATION":98.7169,"RA_OF_ASC_NODE":163.4239,"ARG_OF_PERICENTER":257.3146,"MEAN_ANOMALY":102.189,"EPHEMERIS_TYPE":0,"CLASSIFICATION_TYPE":"U","NORAD_CAT_ID":41824,"ELEMENT_SET_NO":999,"REV_AT_EPOCH":48974,"BSTAR":0.0017274158,"MEAN_MOTION_DOT":4.064e-5,"MEAN_MOTION_DDOT":0},{"OBJECT_NAME":"FENGYUN 1C DEB","OBJECT_ID":"1999-025EYC","EPOCH":"2026-04-01T03:38:54.670560","MEAN_MOTION":14.25931992,"ECCENTRICITY":0.00530587,"INCLINATION":98.7306,"RA_OF_ASC_NODE":164.7901,"ARG_OF_PERICENTER":261.5431,"MEAN_ANOMALY":97.9732,"EPHEMERIS_TYPE":0,"CLASSIFICATION_TYPE":"U","NORAD_CAT_ID":41825,"ELEMENT_SET_NO":999,"REV_AT_EPOCH":48907,"BSTAR":0.0016264403,"MEAN_MOTION_DOT":3.89e-5,"MEAN_MOTION_DDOT":0},{"OBJECT_NAME":"FENGYUN 1C DEB","OBJECT_ID":"1999-025EYD","EPOCH":"2026-04-05T09:48:55.627488","MEAN_MOTION":14.24519629,"ECCENTRICITY":0.00536317,"INCLINATION":98.7193,"RA_OF_ASC_NODE":165.4166,"ARG_OF_PERICENTER":252.7916,"MEAN_ANOMALY":106.7388,"EPHEMERIS_TYPE":0,"CLASSIFICATION_TYPE":"U","NORAD_CAT_ID":41826,"ELEMENT_SET_NO":999,"REV_AT_EPOCH":48978,"BSTAR":0.0016158343,"MEAN_MOTION_DOT":3.76e-5,"MEAN_MOTION_DDOT":0},{"OBJECT_NAME":"FENGYUN 1C DEB","OBJECT_ID":"1999-025EYE","EPOCH":"2026-04-05T15:40:35.109696","MEAN_MOTION":14.26175382,"ECCENTRICITY":0.0056171,"INCLINATION":98.729,"RA_OF_ASC_NODE":169.4923,"ARG_OF_PERICENTER":241.9077,"MEAN_ANOMALY":117.6417,"EPHEMERIS_TYPE":0,"CLASSIFICATION_TYPE":"U","NORAD_CAT_ID":41827,"ELEMENT_SET_NO":999,"REV_AT_EPOCH":48954,"BSTAR":0.0017223,"MEAN_MOTION_DOT":4.15e-5,"MEAN_MOTION_DDOT":0},{"OBJECT_NAME":"FENGYUN 1C DEB","OBJECT_ID":"1999-025EYF","EPOCH":"2026-04-04T20:09:33.828768","MEAN_MOTION":14.56360574,"ECCENTRICITY":0.00377253,"INCLINATION":98.9217,"RA_OF_ASC_NODE":235.2481,"ARG_OF_PERICENTER":190.3145,"MEAN_ANOMALY":169.7281,"EPHEMERIS_TYPE":0,"CLASSIFICATION_TYPE":"U","NORAD_CAT_ID":41828,"ELEMENT_SET_NO":999,"REV_AT_EPOCH":49107,"BSTAR":0.0049348813,"MEAN_MOTION_DOT":0.0002211,"MEAN_MOTION_DDOT":0},{"OBJECT_NAME":"FENGYUN 1C DEB","OBJECT_ID":"1999-025EYG","EPOCH":"2026-04-05T15:20:08.443968","MEAN_MOTION":14.260027,"ECCENTRICITY":0.005397,"INCLINATION":98.7315,"RA_OF_ASC_NODE":169.4742,"ARG_OF_PERICENTER":246.0522,"MEAN_ANOMALY":113.5,"EPHEMERIS_TYPE":0,"CLASSIFICATION_TYPE":"U","NORAD_CAT_ID":41829,"ELEMENT_SET_NO":999,"REV_AT_EPOCH":48930,"BSTAR":0.0018293,"MEAN_MOTION_DOT":4.39e-5,"MEAN_MOTION_DDOT":0},{"OBJECT_NAME":"FENGYUN 1C DEB","OBJECT_ID":"1999-025EYH","EPOCH":"2026-04-05T11:50:12.392736","MEAN_MOTION":14.27420876,"ECCENTRICITY":0.00523452,"INCLINATION":98.7403,"RA_OF_ASC_NODE":172.4655,"ARG_OF_PERICENTER":243.873,"MEAN_ANOMALY":115.706,"EPHEMERIS_TYPE":0,"CLASSIFICATION_TYPE":"U","NORAD_CAT_ID":41830,"ELEMENT_SET_NO":999,"REV_AT_EPOCH":48896,"BSTAR":0.0019195008,"MEAN_MOTION_DOT":4.735e-5,"MEAN_MOTION_DDOT":0}]
