FENGYUN 1C DEB          
1 40691U 99025EWX 26084.85294020  .00000149  00000+0  14538-3 0  9992
2 40691  99.0425 119.3425 0129177  31.4384 329.4414 13.90005530568682
FENGYUN 1C DEB          
1 40695U 99025EXB 26083.11052948  .00001179  00000+0  18759-3 0  9998
2 40695  99.4315 218.6933 0280581  32.2535 329.5475 14.51503334333365
FENGYUN 1C DEB          
1 41003U 99025EXH 26095.59411941  .00039375  00000+0  49606-2 0  9992
2 41003  98.9680  32.1481 0060299 295.6575  63.8413 14.80565153541007
FENGYUN 1C DEB          
1 41005U 99025EXK 26089.32452902  .00002279  00000+0  12678-2 0  9992
2 41005  98.9483 122.5123 0572294 178.1770 182.1644 13.51143316538335
FENGYUN 1C DEB          
1 41006U 99025EXL 26087.02066024  .00002741  00000+0  21345-2 0  9999
2 41006 102.3670 356.1302 0183896 119.2593 242.7074 13.86078653589473
FENGYUN 1C DEB          
1 41007U 99025EXM 26087.32992398  .00001783  00000+0  14095-2 0  9994
2 41007  99.9575 125.8425 0173658 127.7159 233.9879 13.86200120588619
FENGYUN 1C DEB          
1 41011U 99025EXR 26094.89255501  .00004697  00000+0  78309-3 0  9993
2 41011  99.1477 153.6040 0307138  23.4891 337.9989 14.43868965587893
FENGYUN 1C DEB          
1 41822U 99025EXZ 26095.13685392  .00004103  00000+0  17233-2 0  9996
2 41822  98.7189 165.7473 0053180 249.8567 109.6887 14.25652924489888
FENGYUN 1C DEB          
1 41823U 99025EYA 26095.71993042  .00003270  00000+0  14146-2 0  9999
2 41823  98.7056 163.0427 0052682 256.6175 102.9128 14.24298854489802
FENGYUN 1C DEB          
1 41824U 99025EYB 26095.13037893  .00004064  00000+0  17274-2 0  9996
2 41824  98.7169 163.4239 0054922 257.3146 102.1890 14.24997657489746
FENGYUN 1C DEB          
1 41825U 99025EYC 26091.15202165  .00003890  00000+0  16264-2 0  9995
2 41825  98.7306 164.7901 0053058 261.5431  97.9732 14.25931992489076
FENGYUN 1C DEB          
1 41826U 99025EYD 26095.40897717  .00003760  00000+0  16158-2 0  9999
2 41826  98.7193 165.4166 0053631 252.7916 106.7388 14.24519629489781
FENGYUN 1C DEB          
1 41827U 99025EYE 26095.65318414  .00004150  00000+0  17223-2 0  9997
2 41827  98.7290 169.4923 0056171 241.9077 117.6417 14.26175382489549
FENGYUN 1C DEB          
1 41828U 99025EYF 26094.83997487  .00022110  00000+0  49349-2 0  9990
2 41828  98.9217 235.2481 0037725 190.3145 169.7281 14.56360574491079
FENGYUN 1C DEB          
1 41829U 99025EYG 26095.63898662  .00004390  00000+0  18293-2 0  9999
2 41829  98.7315 169.4742 0053970 246.0522 113.5000 14.26002700489303
FENGYUN 1C DEB          
1 41830U 99025EYH 26095.49319899  .00004735  00000+0  19195-2 0  9990
2 41830  98.7403 172.4655 0052345 243.8730 115.7060 14.27420876488961
